{
  "type": "FeatureCollection",
  "features": [
    {
      "type": "Feature",
      "properties": {
        "norad_id": 30334,
        "name": "FENGYUN 1C DEB",
        "group": "fengyun-1c-debris",
        "lat": -51.48325202704353,
        "lon": 112.43124316538454,
        "alt_km": 821.7355625735481,
        "timestamp": "2025-12-27T17:24:57.680963+00:00",
        "meta_object_name": "FENGYUN 1C DEB",
        "meta_object_id": "1999-025AAV",
        "meta_epoch": "2025-12-27T05:43:46.285824",
        "meta_mean_motion": 13.92426725,
        "meta_eccentricity": 0.0145286,
        "meta_inclination": 99.021,
        "meta_ra_of_asc_node": 100.4439,
        "meta_arg_of_pericenter": 301.9702,
        "meta_mean_anomaly": 85.9472,
        "meta_ephemeris_type": 0,
        "meta_classification_type": "U",
        "meta_norad_cat_id": 30334,
        "meta_element_set_no": 999,
        "meta_rev_at_epoch": 95423,
        "meta_bstar": 0.0014422,
        "meta_mean_motion_dot": 1.979e-05,
        "meta_mean_motion_ddot": 0,
        "tle_line1": "1 30334U 99025AAV 25361.23873016  .00001979  00000+0  14422-2 0  9995",
        "tle_line2": "2 30334  99.0210 100.4439 0145286 301.9702  85.9472 13.92426725954234"
      },
      "geometry": {
        "type": "Point",
        "coordinates": [
          112.43124316538454,
          -51.48325202704353
        ]
      }
    },
    {
      "type": "Feature",
      "properties": {
        "norad_id": 30335,
        "name": "FENGYUN 1C DEB",
        "group": "fengyun-1c-debris",
        "lat": -76.78864663135512,
        "lon": 34.559072080471836,
        "alt_km": 991.9489398267406,
        "timestamp": "2025-12-27T17:24:57.680974+00:00",
        "meta_object_name": "FENGYUN 1C DEB",
        "meta_object_id": "1999-025AAW",
        "meta_epoch": "2025-12-27T11:32:14.487072",
        "meta_mean_motion": 14.01362808,
        "meta_eccentricity": 0.013349,
        "meta_inclination": 98.9048,
        "meta_ra_of_asc_node": 352.4196,
        "meta_arg_of_pericenter": 90.6647,
        "meta_mean_anomaly": 34.3738,
        "meta_ephemeris_type": 0,
        "meta_classification_type": "U",
        "meta_norad_cat_id": 30335,
        "meta_element_set_no": 999,
        "meta_rev_at_epoch": 96797,
        "meta_bstar": 2.9606e-05,
        "meta_mean_motion_dot": 6e-08,
        "meta_mean_motion_ddot": 0,
        "tle_line1": "1 30335U 99025AAW 25361.48072323  .00000006  00000+0  29606-4 0  9997",
        "tle_line2": "2 30335  98.9048 352.4196 0133490  90.6647  34.3738 14.01362808967975"
      },
      "geometry": {
        "type": "Point",
        "coordinates": [
          34.559072080471836,
          -76.78864663135512
        ]
      }
    },
    {
      "type": "Feature",
      "properties": {
        "norad_id": 30336,
        "name": "FENGYUN 1C DEB",
        "group": "fengyun-1c-debris",
        "lat": 11.881204467007109,
        "lon": 20.411875761826693,
        "alt_km": 807.7837087605576,
        "timestamp": "2025-12-27T17:24:57.680985+00:00",
        "meta_object_name": "FENGYUN 1C DEB",
        "meta_object_id": "1999-025AAX",
        "meta_epoch": "2025-12-27T07:16:48.874944",
        "meta_mean_motion": 14.19326585,
        "meta_eccentricity": 0.0042862,
        "meta_inclination": 98.5996,
        "meta_ra_of_asc_node": 21.8264,
        "meta_arg_of_pericenter": 326.2331,
        "meta_mean_anomaly": 48.8605,
        "meta_ephemeris_type": 0,
        "meta_classification_type": "U",
        "meta_norad_cat_id": 30336,
        "meta_element_set_no": 999,
        "meta_rev_at_epoch": 97809,
        "meta_bstar": 0.00037226,
        "meta_mean_motion_dot": 7.46e-06,
        "meta_mean_motion_ddot": 0,
        "tle_line1": "1 30336U 99025AAX 25361.30334346  .00000746  00000+0  37226-3 0  9992",
        "tle_line2": "2 30336  98.5996  21.8264 0042862 326.2331  48.8605 14.19326585978096"
      },
      "geometry": {
        "type": "Point",
        "coordinates": [
          20.411875761826693,
          11.881204467007109
        ]
      }
    },
    {
      "type": "Feature",
      "properties": {
        "norad_id": 30338,
        "name": "FENGYUN 1C DEB",
        "group": "fengyun-1c-debris",
        "lat": 61.83438961218631,
        "lon": -92.40990238643572,
        "alt_km": 560.6848438596717,
        "timestamp": "2025-12-27T17:24:57.680995+00:00",
        "meta_object_name": "FENGYUN 1C DEB",
        "meta_object_id": "1999-025AAZ",
        "meta_epoch": "2025-12-27T03:51:45.913248",
        "meta_mean_motion": 14.47701292,
        "meta_eccentricity": 0.02721308,
        "meta_inclination": 98.4573,
        "meta_ra_of_asc_node": 70.8906,
        "meta_arg_of_pericenter": 150.1385,
        "meta_mean_anomaly": 266.922,
        "meta_ephemeris_type": 0,
        "meta_classification_type": "U",
        "meta_norad_cat_id": 30338,
        "meta_element_set_no": 999,
        "meta_rev_at_epoch": 98353,
        "meta_bstar": 0.0013434201,
        "meta_mean_motion_dot": 7.874e-05,
        "meta_mean_motion_ddot": 0,
        "tle_line1": "1 30338U 99025AAZ 25361.16094807  .00007874  00000+0  13434-2 0  9996",
        "tle_line2": "2 30338  98.4573  70.8906 0272130 150.1385 266.9220 14.47701292983535"
      },
      "geometry": {
        "type": "Point",
        "coordinates": [
          -92.40990238643572,
          61.83438961218631
        ]
      }
    },
    {
      "type": "Feature",
      "properties": {
        "norad_id": 30339,
        "name": "FENGYUN 1C DEB",
        "group": "fengyun-1c-debris",
        "lat": -19.59820421328943,
        "lon": -74.40309489494855,
        "alt_km": 781.7776195591659,
        "timestamp": "2025-12-27T17:24:57.681005+00:00",
        "meta_object_name": "FENGYUN 1C DEB",
        "meta_object_id": "1999-025ABA",
        "meta_epoch": "2025-12-26T19:29:27.294144",
        "meta_mean_motion": 14.3836143,
        "meta_eccentricity": 0.00187579,
        "meta_inclination": 98.9726,
        "meta_ra_of_asc_node": 107.8677,
        "meta_arg_of_pericenter": 39.4035,
        "meta_mean_anomaly": 112.5023,
        "meta_ephemeris_type": 0,
        "meta_classification_type": "U",
        "meta_norad_cat_id": 30339,
        "meta_element_set_no": 999,
        "meta_rev_at_epoch": 97629,
        "meta_bstar": 0.0025546033,
        "meta_mean_motion_dot": 7.76e-05,
        "meta_mean_motion_ddot": 0,
        "tle_line1": "1 30339U 99025ABA 25360.81212146  .00007760  00000+0  25546-2 0  9997",
        "tle_line2": "2 30339  98.9726 107.8677 0018757  39.4035 112.5023 14.38361430976299"
      },
      "geometry": {
        "type": "Point",
        "coordinates": [
          -74.40309489494855,
          -19.59820421328943
        ]
      }
    },
    {
      "type": "Feature",
      "properties": {
        "norad_id": 30340,
        "name": "FENGYUN 1C DEB",
        "group": "fengyun-1c-debris",
        "lat": 49.75363486598061,
        "lon": 47.53466789687663,
        "alt_km": 794.4964762047421,
        "timestamp": "2025-12-27T17:24:57.681015+00:00",
        "meta_object_name": "FENGYUN 1C DEB",
        "meta_object_id": "1999-025ABB",
        "meta_epoch": "2025-12-27T10:25:02.705376",
        "meta_mean_motion": 14.04607425,
        "meta_eccentricity": 0.0146352,
        "meta_inclination": 98.9996,
        "meta_ra_of_asc_node": 58.0364,
        "meta_arg_of_pericenter": 94.1618,
        "meta_mean_anomaly": 283.9088,
        "meta_ephemeris_type": 0,
        "meta_classification_type": "U",
        "meta_norad_cat_id": 30340,
        "meta_element_set_no": 999,
        "meta_rev_at_epoch": 96987,
        "meta_bstar": 8.0741e-05,
        "meta_mean_motion_dot": 9.9e-07,
        "meta_mean_motion_ddot": 0,
        "tle_line1": "1 30340U 99025ABB 25361.43405909  .00000099  00000+0  80741-4 0  9997",
        "tle_line2": "2 30340  98.9996  58.0364 0146352  94.1618 283.9088 14.04607425969878"
      },
      "geometry": {
        "type": "Point",
        "coordinates": [
          47.53466789687663,
          49.75363486598061
        ]
      }
    },
    {
      "type": "Feature",
      "properties": {
        "norad_id": 30341,
        "name": "FENGYUN 1C DEB",
        "group": "fengyun-1c-debris",
        "lat": 53.496455881299305,
        "lon": -121.92667123825956,
        "alt_km": 743.0100475827367,
        "timestamp": "2025-12-27T17:24:57.681025+00:00",
        "meta_object_name": "FENGYUN 1C DEB",
        "meta_object_id": "1999-025ABC",
        "meta_epoch": "2025-12-27T04:28:23.045376",
        "meta_mean_motion": 14.34340429,
        "meta_eccentricity": 0.00523551,
        "meta_inclination": 99.219,
        "meta_ra_of_asc_node": 250.1756,
        "meta_arg_of_pericenter": 16.9915,
        "meta_mean_anomaly": 134.0814,
        "meta_ephemeris_type": 0,
        "meta_classification_type": "U",
        "meta_norad_cat_id": 30341,
        "meta_element_set_no": 999,
        "meta_rev_at_epoch": 97288,
        "meta_bstar": 0.0037967109,
        "meta_mean_motion_dot": 0.00010805,
        "meta_mean_motion_ddot": 0,
        "tle_line1": "1 30341U 99025ABC 25361.18637784  .00010805  00000+0  37967-2 0  9994",
        "tle_line2": "2 30341  99.2190 250.1756 0052355  16.9915 134.0814 14.34340429972889"
      },
      "geometry": {
        "type": "Point",
        "coordinates": [
          -121.92667123825956,
          53.496455881299305
        ]
      }
    }
  ]
}